start=new Date('2022-03-15T00:00:00.000Z').valueOf();
sats=[{"SEMIMAJOR_AXIS":"6925.359","DECAY_DATE":null,"TLE_LINE1":"1 46575U 20070AV  22073.74139822 -.00001850  00000-0 -10535-3 0  9999","ARG_OF_PERICENTER":"66.2296","CLASSIFICATION_TYPE":"U","LAUNCH_DATE":"2020-10-06","INCLINATION":"53.0551","RCS_SIZE":"LARGE","MEAN_MOTION_DOT":"-0.00001850","MEAN_MOTION":"15.06396644","PERIOD":"95.592","OBJECT_ID":"2020-070AV","SITE":"AFETR","MEAN_MOTION_DDOT":"0.0000000000000","RA_OF_ASC_NODE":"192.5931","TIME_SYSTEM":"UTC","EPOCH":"2022-03-14T17:47:36.806208","REV_AT_EPOCH":"8061","BSTAR":"-0.00010535000000","FILE":"3359665","MEAN_ANOMALY":"293.8844","CENTER_NAME":"EARTH","EPHEMERIS_TYPE":"0","COUNTRY_CODE":"US","ECCENTRICITY":"0.00014480","REF_FRAME":"TEME","APOAPSIS":"548.227","NORAD_CAT_ID":"46575","OBJECT_TYPE":"PAYLOAD","TLE_LINE2":"2 46575  53.0551 192.5931 0001448  66.2296 293.8844 15.06396644 80613","GP_ID":"198767676","OBJECT_NAME":"STARLINK-1675","ELEMENT_SET_NO":"999","PERIAPSIS":"546.221","MEAN_ELEMENT_THEORY":"SGP4"},{"EPHEMERIS_TYPE":"0","MEAN_ANOMALY":"297.9928","CENTER_NAME":"EARTH","FILE":"3359665","BSTAR":"0.00005260900000","NORAD_CAT_ID":"46576","APOAPSIS":"548.283","REF_FRAME":"TEME","COUNTRY_CODE":"US","ECCENTRICITY":"0.00015920","OBJECT_NAME":"STARLINK-1677","GP_ID":"198768428","TLE_LINE2":"2 46576  53.0544 217.6018 0001592  62.1222 297.9928 15.06410893 80278","OBJECT_TYPE":"PAYLOAD","MEAN_ELEMENT_THEORY":"SGP4","PERIAPSIS":"546.078","ELEMENT_SET_NO":"999","INCLINATION":"53.0544","CLASSIFICATION_TYPE":"U","LAUNCH_DATE":"2020-10-06","ARG_OF_PERICENTER":"62.1222","DECAY_DATE":null,"TLE_LINE1":"1 46576U 20070AW  22073.74462001  .00000502  00000-0  52609-4 0  9998","SEMIMAJOR_AXIS":"6925.315","MEAN_MOTION":"15.06410893","MEAN_MOTION_DOT":"0.00000502","RCS_SIZE":"LARGE","TIME_SYSTEM":"UTC","RA_OF_ASC_NODE":"217.6018","OBJECT_ID":"2020-070AW","SITE":"AFETR","MEAN_MOTION_DDOT":"0.0000000000000","PERIOD":"95.591","EPOCH":"2022-03-14T17:52:15.168864","REV_AT_EPOCH":"8027"},{"RA_OF_ASC_NODE":"217.7825","TIME_SYSTEM":"UTC","SITE":"AFETR","MEAN_MOTION_DDOT":"0.0000000000000","OBJECT_ID":"2020-070AX","PERIOD":"95.592","REV_AT_EPOCH":"8026","EPOCH":"2022-03-14T16:59:11.946624","LAUNCH_DATE":"2020-10-06","CLASSIFICATION_TYPE":"U","INCLINATION":"53.0551","DECAY_DATE":null,"TLE_LINE1":"1 46577U 20070AX  22073.70777716 -.00000643  00000-0 -24291-4 0  9991","ARG_OF_PERICENTER":"70.7534","SEMIMAJOR_AXIS":"6925.362","MEAN_MOTION":"15.06395718","RCS_SIZE":"LARGE","MEAN_MOTION_DOT":"-0.00000643","OBJECT_NAME":"STARLINK-1682","GP_ID":"198768679","TLE_LINE2":"2 46577  53.0551 217.7825 0001490  70.7534 289.3616 15.06395718 80268","OBJECT_TYPE":"PAYLOAD","PERIAPSIS":"546.195","MEAN_ELEMENT_THEORY":"SGP4","ELEMENT_SET_NO":"999","EPHEMERIS_TYPE":"0","MEAN_ANOMALY":"289.3616","CENTER_NAME":"EARTH","BSTAR":"-0.00002429100000","FILE":"3359665","APOAPSIS":"548.259","NORAD_CAT_ID":"46577","REF_FRAME":"TEME","COUNTRY_CODE":"US","ECCENTRICITY":"0.00014900"},{"OBJECT_TYPE":"PAYLOAD","TLE_LINE2":"2 46578  53.0533 203.1867 0001418  69.1028 291.0113 15.06411361 80168","GP_ID":"198742496","OBJECT_NAME":"STARLINK-1683","ELEMENT_SET_NO":"999","PERIAPSIS":"546.197","MEAN_ELEMENT_THEORY":"SGP4","FILE":"3359464","BSTAR":"0.00088014000000","CENTER_NAME":"EARTH","MEAN_ANOMALY":"291.0113","EPHEMERIS_TYPE":"0","COUNTRY_CODE":"US","ECCENTRICITY":"0.00014180","REF_FRAME":"TEME","NORAD_CAT_ID":"46578","APOAPSIS":"548.161","PERIOD":"95.591","MEAN_MOTION_DDOT":"0.0000000000000","SITE":"AFETR","OBJECT_ID":"2020-070AY","TIME_SYSTEM":"UTC","RA_OF_ASC_NODE":"203.1867","REV_AT_EPOCH":"8016","EPOCH":"2022-03-14T14:49:46.572960","SEMIMAJOR_AXIS":"6925.314","ARG_OF_PERICENTER":"69.1028","DECAY_DATE":null,"TLE_LINE1":"1 46578U 20070AY  22073.61790015  .00012856  00000-0  88014-3 0  9998","INCLINATION":"53.0533","CLASSIFICATION_TYPE":"U","LAUNCH_DATE":"2020-10-06","MEAN_MOTION_DOT":"0.00012856","RCS_SIZE":"LARGE","MEAN_MOTION":"15.06411361"},{"BSTAR":"0.00012864000000","FILE":"3359665","MEAN_ANOMALY":"285.8506","CENTER_NAME":"EARTH","EPHEMERIS_TYPE":"0","COUNTRY_CODE":"US","ECCENTRICITY":"0.00013760","REF_FRAME":"TEME","APOAPSIS":"548.166","NORAD_CAT_ID":"46579","OBJECT_TYPE":"PAYLOAD","TLE_LINE2":"2 46579  53.0526 217.8400 0001376  74.2634 285.8506 15.06400011 80267","GP_ID":"198768176","OBJECT_NAME":"STARLINK-1705","ELEMENT_SET_NO":"999","MEAN_ELEMENT_THEORY":"SGP4","PERIAPSIS":"546.261","SEMIMAJOR_AXIS":"6925.349","DECAY_DATE":null,"TLE_LINE1":"1 46579U 20070AZ  22073.69303486  .00001635  00000-0  12864-3 0  9992","ARG_OF_PERICENTER":"74.2634","LAUNCH_DATE":"2020-10-06","CLASSIFICATION_TYPE":"U","INCLINATION":"53.0526","MEAN_MOTION_DOT":"0.00001635","RCS_SIZE":"LARGE","MEAN_MOTION":"15.06400011","PERIOD":"95.592","MEAN_MOTION_DDOT":"0.0000000000000","SITE":"AFETR","OBJECT_ID":"2020-070AZ","RA_OF_ASC_NODE":"217.8400","TIME_SYSTEM":"UTC","EPOCH":"2022-03-14T16:37:58.211904","REV_AT_EPOCH":"8026"},{"SITE":"AFETR","MEAN_MOTION_DDOT":"0.0000000000000","OBJECT_ID":"2020-070BA","TIME_SYSTEM":"UTC","RA_OF_ASC_NODE":"217.3369","PERIOD":"95.592","REV_AT_EPOCH":"8029","EPOCH":"2022-03-14T19:17:10.917312","INCLINATION":"53.0528","CLASSIFICATION_TYPE":"U","LAUNCH_DATE":"2020-10-06","SEMIMAJOR_AXIS":"6925.327","ARG_OF_PERICENTER":"66.4382","TLE_LINE1":"1 46580U 20070BA  22073.80359858  .00005689  00000-0  40042-3 0  9993","DECAY_DATE":null,"MEAN_MOTION":"15.06407134","MEAN_MOTION_DOT":"0.00005689","RCS_SIZE":"LARGE","GP_ID":"198742011","OBJECT_NAME":"STARLINK-1708","OBJECT_TYPE":"PAYLOAD","TLE_LINE2":"2 46580  53.0528 217.3369 0001303  66.4382 293.6744 15.06407134 80290","ELEMENT_SET_NO":"999","PERIAPSIS":"546.289","MEAN_ELEMENT_THEORY":"SGP4","EPHEMERIS_TYPE":"0","FILE":"3359466","BSTAR":"0.00040042000000","MEAN_ANOMALY":"293.6744","CENTER_NAME":"EARTH","NORAD_CAT_ID":"46580","APOAPSIS":"548.094","ECCENTRICITY":"0.00013030","COUNTRY_CODE":"US","REF_FRAME":"TEME"},{"NORAD_CAT_ID":"46581","APOAPSIS":"548.242","REF_FRAME":"TEME","ECCENTRICITY":"0.00014900","COUNTRY_CODE":"US","EPHEMERIS_TYPE":"0","CENTER_NAME":"EARTH","MEAN_ANOMALY":"298.3573","FILE":"3359665","BSTAR":"0.00017081000000","PERIAPSIS":"546.179","MEAN_ELEMENT_THEORY":"SGP4","ELEMENT_SET_NO":"999","OBJECT_NAME":"STARLINK-1712","GP_ID":"198769179","TLE_LINE2":"2 46581  53.0568 212.8001 0001490  61.7567 298.3573 15.06401023 80336","OBJECT_TYPE":"PAYLOAD","MEAN_MOTION":"15.06401023","MEAN_MOTION_DOT":"0.00002264","RCS_SIZE":"LARGE","INCLINATION":"53.0568","LAUNCH_DATE":"2020-10-06","CLASSIFICATION_TYPE":"U","ARG_OF_PERICENTER":"61.7567","TLE_LINE1":"1 46581U 20070BB  22073.70270003  .00002264  00000-0  17081-3 0  9990","DECAY_DATE":null,"SEMIMAJOR_AXIS":"6925.345","REV_AT_EPOCH":"8033","EPOCH":"2022-03-14T16:51:53.282592","TIME_SYSTEM":"UTC","RA_OF_ASC_NODE":"212.8001","SITE":"AFETR","MEAN_MOTION_DDOT":"0.0000000000000","OBJECT_ID":"2020-070BB","PERIOD":"95.592"},{"EPOCH":"2022-03-14T18:06:10.681056","REV_AT_EPOCH":"8034","RA_OF_ASC_NODE":"212.5361","TIME_SYSTEM":"UTC","MEAN_MOTION_DDOT":"0.0000000000000","SITE":"AFETR","OBJECT_ID":"2020-070BC","PERIOD":"95.591","MEAN_MOTION":"15.06420028","RCS_SIZE":"LARGE","MEAN_MOTION_DOT":"0.00006481","CLASSIFICATION_TYPE":"U","LAUNCH_DATE":"2020-10-06","INCLINATION":"53.0583","TLE_LINE1":"1 46582U 20070BC  22073.75429029  .00006481  00000-0  45337-3 0  9990","DECAY_DATE":null,"ARG_OF_PERICENTER":"77.5213","SEMIMAJOR_AXIS":"6925.287","PERIAPSIS":"546.204","MEAN_ELEMENT_THEORY":"SGP4","ELEMENT_SET_NO":"999","OBJECT_NAME":"STARLINK-1728","GP_ID":"198767428","TLE_LINE2":"2 46582  53.0583 212.5361 0001369  77.5213 282.5929 15.06420028 80345","OBJECT_TYPE":"PAYLOAD","APOAPSIS":"548.100","NORAD_CAT_ID":"46582","REF_FRAME":"TEME","COUNTRY_CODE":"US","ECCENTRICITY":"0.00013690","EPHEMERIS_TYPE":"0","MEAN_ANOMALY":"282.5929","CENTER_NAME":"EARTH","BSTAR":"0.00045337000000","FILE":"3359665"},{"PERIOD":"95.592","SITE":"AFETR","MEAN_MOTION_DDOT":"0.0000000000000","OBJECT_ID":"2020-070BD","TIME_SYSTEM":"UTC","RA_OF_ASC_NODE":"232.6326","EPOCH":"2022-03-14T17:42:19.212768","REV_AT_EPOCH":"8005","SEMIMAJOR_AXIS":"6925.357","ARG_OF_PERICENTER":"75.4264","TLE_LINE1":"1 46583U 20070BD  22073.73772237 -.00001171  00000-0 -59741-4 0  9999","DECAY_DATE":null,"INCLINATION":"53.0528","CLASSIFICATION_TYPE":"U","LAUNCH_DATE":"2020-10-06","MEAN_MOTION_DOT":"-0.00001171","RCS_SIZE":"LARGE","MEAN_MOTION":"15.06397327","OBJECT_TYPE":"PAYLOAD","TLE_LINE2":"2 46583  53.0528 232.6326 0001305  75.4264 284.6869 15.06397327 80051","GP_ID":"198767677","OBJECT_NAME":"STARLINK-1729","ELEMENT_SET_NO":"999","PERIAPSIS":"546.318","MEAN_ELEMENT_THEORY":"SGP4","FILE":"3359665","BSTAR":"-0.00005974100000","CENTER_NAME":"EARTH","MEAN_ANOMALY":"284.6869","EPHEMERIS_TYPE":"0","COUNTRY_CODE":"US","ECCENTRICITY":"0.00013050","REF_FRAME":"TEME","NORAD_CAT_ID":"46583","APOAPSIS":"548.126"},{"RA_OF_ASC_NODE":"212.2528","TIME_SYSTEM":"UTC","SITE":"AFETR","MEAN_MOTION_DDOT":"0.0000000000000","OBJECT_ID":"2020-070BE","PERIOD":"95.592","EPOCH":"2022-03-14T19:47:02.555232","REV_AT_EPOCH":"8035","CLASSIFICATION_TYPE":"U","LAUNCH_DATE":"2020-10-06","INCLINATION":"53.0548","TLE_LINE1":"1 46584U 20070BE  22073.82433513  .00002711  00000-0  20081-3 0  9994","DECAY_DATE":null,"ARG_OF_PERICENTER":"74.1754","SEMIMAJOR_AXIS":"6925.326","MEAN_MOTION":"15.06407516","MEAN_MOTION_DOT":"0.00002711","RCS_SIZE":"LARGE","OBJECT_NAME":"STARLINK-1732","GP_ID":"198768429","TLE_LINE2":"2 46584  53.0548 212.2528 0001216  74.1754 285.9369 15.06407516 80357","OBJECT_TYPE":"PAYLOAD","MEAN_ELEMENT_THEORY":"SGP4","PERIAPSIS":"546.348","ELEMENT_SET_NO":"999","EPHEMERIS_TYPE":"0","CENTER_NAME":"EARTH","MEAN_ANOMALY":"285.9369","BSTAR":"0.00020081000000","FILE":"3359665","APOAPSIS":"548.033","NORAD_CAT_ID":"46584","REF_FRAME":"TEME","COUNTRY_CODE":"US","ECCENTRICITY":"0.00012160"}];
